ONEWEB-0499             
1 54117U 22138E   26158.65670271  .00000071  00000+0  14428-3 0  9999
2 54117  87.9162 306.8714 0001622  91.4942 268.6376 13.19726683175560
ONEWEB-0500             
1 54118U 22138F   26158.65905390  .00000111  00000+0  24406-3 0  9995
2 54118  87.9172 306.8643 0001893  99.3362 260.7985 13.19723987175570
ONEWEB-0501             
1 54119U 22138G   26158.46160655  .00000593  00000+0  14497-2 0  9994
2 54119  87.9169 306.9036 0001474  93.3289 266.8012 13.19720679175529
ONEWEB-0502             
1 54120U 22138H   26158.67484307  .00000080  00000+0  16808-3 0  9992
2 54120  87.9172 306.8499 0001655  90.2479 269.8843 13.19723292175579
ONEWEB-0503             
1 54121U 22138J   26158.66379735  .00000125  00000+0  27981-3 0  9994
2 54121  87.9174 306.8578 0002013  90.0837 270.0527 13.19724191175566
ONEWEB-0504             
1 54122U 22138K   26158.65116638  .00000063  00000+0  12479-3 0  9992
2 54122  87.9171 306.8651 0001685  90.3630 269.7696 13.19724982175575
ONEWEB-0505             
1 54123U 22138L   26158.64801593  .00000095  00000+0  20488-3 0  9997
2 54123  87.9171 306.8669 0001425  88.4623 271.6673 13.19725899175550
ONEWEB-0506             
1 54124U 22138M   26158.69853088 -.00002317  00000+0 -58208-2 0  9990
2 54124  87.9169 306.8540 0001693  92.4356 267.6970 13.19734801175559
ONEWEB-0507             
1 54125U 22138N   26158.64326829  .00000037  00000+0  58912-4 0  9993
2 54125  87.9162 306.8776 0001605  96.3361 263.7954 13.19725705175592
ONEWEB-0508             
1 54126U 22138P   26158.64009608  .00000067  00000+0  13556-3 0  9994
2 54126  87.9163 306.8779 0001374  99.8503 260.2785 13.19724081175574
ONEWEB-0509             
1 54127U 22138Q   26158.69061634 -.00003445  00000+0 -86392-2 0  9999
2 54127  87.9171 306.8566 0001762  96.1121 264.0212 13.19738986175559
ONEWEB-0510             
1 54128U 22138R   26158.73818399  .00000077  00000+0  15752-3 0  9992
2 54128  87.9193 276.3193 0002434  99.6986 260.4423 13.20772176178036
ONEWEB-0511             
1 54129U 22138S   26158.68750204  .00000071  00000+0  14581-3 0  9990
2 54129  87.9170 306.8605 0001857  87.4355 272.6991 13.19725530175584
ONEWEB-0512             
1 54130U 22138T   26158.45213966  .00000134  00000+0  30355-3 0  9993
2 54130  87.9161 306.9130 0001580  88.2011 271.9303 13.19724306175524
ONEWEB-0513             
1 54131U 22138U   26158.46176253  .00000017  00000+0  99922-5 0  9999
2 54131  87.9171 306.8563 0001520  64.8498 295.2793 13.20268437175430
ONEWEB-0514             
1 54132U 22138V   26158.69538485 -.00000053  00000+0 -16587-3 0  9990
2 54132  87.9170 306.8572 0001986  96.8696 263.2663 13.19725701175577
ONEWEB-0515             
1 54133U 22138W   26158.72469600  .00000048  00000+0  86175-4 0  9990
2 54133  87.9195 276.3157 0002500 117.6454 242.4933 13.20770015178057
ONEWEB-0516             
1 54134U 22138X   26158.67011049  .00000124  00000+0  27807-3 0  9996
2 54134  87.9160 306.8695 0001733  99.7994 260.3334 13.19724455175575
ONEWEB-0517             
1 54135U 22138Y   26158.42212600 -.00000108  00000+0 -30238-3 0  9992
2 54135  87.9166 306.9103 0002037  89.5203 270.6163 13.19725267175548
ONEWEB-0518             
1 54136U 22138Z   26158.66856728  .00000076  00000+0  15869-3 0  9999
2 54136  87.9164 306.8719 0001729 102.2910 257.8416 13.19726790175577
ONEWEB-0519             
1 54137U 22138AA  26158.69382463  .00000055  00000+0  10577-3 0  9991
2 54137  87.9174 306.8570 0001954  91.7859 268.3497 13.19726208175589
ONEWEB-0520             
1 54138U 22138AB  26158.65274455  .00000035  00000+0  54684-4 0  9995
2 54138  87.9170 306.8651 0001561  95.3552 264.7759 13.19724664175563
ONEWEB-0521             
1 54139U 22138AC  26158.68591057  .00000076  00000+0  15823-3 0  9995
2 54139  87.9175 306.8475 0002019  92.2652 267.8712 13.19725076175515
ONEWEB-0522             
1 54140U 22138AD  26158.66537733  .00000140  00000+0  31637-3 0  9999
2 54140  87.9173 306.8538 0001703  94.2620 265.8708 13.19724758175554
ONEWEB-0523             
1 54141U 22138AE  26158.71123166 -.00000038  00000+0 -12515-3 0  9999
2 54141  87.9194 276.3286 0002727 105.4627 254.6808 13.20770294178051
ONEWEB-0524             
1 54142U 22138AF  26158.70113404  .00000046  00000+0  81214-4 0  9993
2 54142  87.9190 276.3279 0002305 122.3714 237.7643 13.20770746178058
ONEWEB-0525             
1 54143U 22138AG  26158.68432782  .00000071  00000+0  14519-3 0  9995
2 54143  87.9170 306.8581 0001446  98.7358 261.3939 13.19724704175573
ONEWEB-0526             
1 54144U 22138AH  26158.64168693 -.00000242  00000+0 -63625-3 0  9993
2 54144  87.9171 306.8666 0001707  99.8843 260.2483 13.19727193175544
ONEWEB-0529             
1 54145U 22138AJ  26158.64483654  .00000003  00000+0 -24725-4 0  9994
2 54145  87.9162 306.8758 0001573  97.2281 262.9031 13.19724582175565
ONEWEB-0531             
1 54146U 22138AK  26158.76343553  .00000013  00000+0  78658-6 0  9997
2 54146  87.9189 276.3135 0002716 111.1761 248.9663 13.20771687178067
ONEWEB-0535             
1 54147U 22138AL  26158.67800840  .00000101  00000+0  21876-3 0  9990
2 54147  87.9171 306.8530 0002170  97.0833 263.0546 13.19724409175583
