OBJECT_NAME,OBJECT_ID,EPOCH,MEAN_MOTION,ECCENTRICITY,INCLINATION,RA_OF_ASC_NODE,ARG_OF_PERICENTER,MEAN_ANOMALY,EPHEMERIS_TYPE,CLASSIFICATION_TYPE,NORAD_CAT_ID,ELEMENT_SET_NO,REV_AT_EPOCH,BSTAR,MEAN_MOTION_DOT,MEAN_MOTION_DDOT
ONEWEB-0499,2022-138E,2026-06-07T15:45:39.114144,13.19726683,.0001622,87.9162,306.8714,91.4942,268.6376,0,U,54117,999,17556,.14428E-3,.71E-6,0
ONEWEB-0500,2022-138F,2026-06-07T15:49:02.256960,13.19723987,.0001893,87.9172,306.8643,99.3362,260.7985,0,U,54118,999,17557,.24406E-3,.111E-5,0
ONEWEB-0501,2022-138G,2026-06-07T11:04:42.805920,13.19720679,.0001474,87.9169,306.9036,93.3289,266.8012,0,U,54119,999,17552,.14497E-2,.593E-5,0
ONEWEB-0502,2022-138H,2026-06-07T16:11:46.441248,13.19723292,.0001655,87.9172,306.8499,90.2479,269.8843,0,U,54120,999,17557,.16808E-3,.8E-6,0
ONEWEB-0503,2022-138J,2026-06-07T15:55:52.091040,13.19724191,.0002013,87.9174,306.8578,90.0837,270.0527,0,U,54121,999,17556,.27981E-3,.125E-5,0
ONEWEB-0504,2022-138K,2026-06-07T15:37:40.775232,13.19724982,.0001685,87.9171,306.8651,90.3630,269.7696,0,U,54122,999,17557,.12479E-3,.63E-6,0
ONEWEB-0505,2022-138L,2026-06-07T15:33:08.576352,13.19725899,.0001425,87.9171,306.8669,88.4623,271.6673,0,U,54123,999,17555,.20488E-3,.95E-6,0
ONEWEB-0506,2022-138M,2026-06-07T16:45:53.068032,13.19734801,.0001693,87.9169,306.8540,92.4356,267.6970,0,U,54124,999,17555,-.58208E-2,-.2317E-4,0
ONEWEB-0507,2022-138N,2026-06-07T15:26:18.380256,13.19725705,.0001605,87.9162,306.8776,96.3361,263.7954,0,U,54125,999,17559,.58912E-4,.37E-6,0
ONEWEB-0508,2022-138P,2026-06-07T15:21:44.301312,13.19724081,.0001374,87.9163,306.8779,99.8503,260.2785,0,U,54126,999,17557,.13556E-3,.67E-6,0
ONEWEB-0509,2022-138Q,2026-06-07T16:34:29.251776,13.19738986,.0001762,87.9171,306.8566,96.1121,264.0212,0,U,54127,999,17555,-.86392E-2,-.3445E-4,0
ONEWEB-0510,2022-138R,2026-06-07T17:42:59.096736,13.20772176,.0002434,87.9193,276.3193,99.6986,260.4423,0,U,54128,999,17803,.15752E-3,.77E-6,0
ONEWEB-0511,2022-138S,2026-06-07T16:30:00.176256,13.19725530,.0001857,87.9170,306.8605,87.4355,272.6991,0,U,54129,999,17558,.14581E-3,.71E-6,0
ONEWEB-0512,2022-138T,2026-06-07T10:51:04.866624,13.19724306,.000158,87.9161,306.9130,88.2011,271.9303,0,U,54130,999,17552,.30355E-3,.134E-5,0
ONEWEB-0513,2022-138U,2026-06-07T11:04:56.282592,13.20268437,.000152,87.9171,306.8563,64.8498,295.2793,0,U,54131,999,17543,.99922E-5,.17E-6,0
ONEWEB-0514,2022-138V,2026-06-07T16:41:21.251040,13.19725701,.0001986,87.9170,306.8572,96.8696,263.2663,0,U,54132,999,17557,-.16587E-3,-.53E-6,0
ONEWEB-0515,2022-138W,2026-06-07T17:23:33.734400,13.20770015,.00025,87.9195,276.3157,117.6454,242.4933,0,U,54133,999,17805,.86175E-4,.48E-6,0
ONEWEB-0516,2022-138X,2026-06-07T16:04:57.546336,13.19724455,.0001733,87.9160,306.8695,99.7994,260.3334,0,U,54134,999,17557,.27807E-3,.124E-5,0
ONEWEB-0517,2022-138Y,2026-06-07T10:07:51.686400,13.19725267,.0002037,87.9166,306.9103,89.5203,270.6163,0,U,54135,999,17554,-.30238E-3,-.108E-5,0
ONEWEB-0518,2022-138Z,2026-06-07T16:02:44.212992,13.19726790,.0001729,87.9164,306.8719,102.2910,257.8416,0,U,54136,999,17557,.15869E-3,.76E-6,0
ONEWEB-0519,2022-138AA,2026-06-07T16:39:06.448032,13.19726208,.0001954,87.9174,306.8570,91.7859,268.3497,0,U,54137,999,17558,.10577E-3,.55E-6,0
ONEWEB-0520,2022-138AB,2026-06-07T15:39:57.129120,13.19724664,.0001561,87.9170,306.8651,95.3552,264.7759,0,U,54138,999,17556,.54684E-4,.35E-6,0
ONEWEB-0521,2022-138AC,2026-06-07T16:27:42.673248,13.19725076,.0002019,87.9175,306.8475,92.2652,267.8712,0,U,54139,999,17551,.15823E-3,.76E-6,0
ONEWEB-0522,2022-138AD,2026-06-07T15:58:08.601312,13.19724758,.0001703,87.9173,306.8538,94.2620,265.8708,0,U,54140,999,17555,.31637E-3,.14E-5,0
ONEWEB-0523,2022-138AE,2026-06-07T17:04:10.415424,13.20770294,.0002727,87.9194,276.3286,105.4627,254.6808,0,U,54141,999,17805,-.12515E-3,-.38E-6,0
ONEWEB-0524,2022-138AF,2026-06-07T16:49:37.981056,13.20770746,.0002305,87.9190,276.3279,122.3714,237.7643,0,U,54142,999,17805,.81214E-4,.46E-6,0
ONEWEB-0525,2022-138AG,2026-06-07T16:25:25.923648,13.19724704,.0001446,87.9170,306.8581,98.7358,261.3939,0,U,54143,999,17557,.14519E-3,.71E-6,0
ONEWEB-0526,2022-138AH,2026-06-07T15:24:01.750752,13.19727193,.0001707,87.9171,306.8666,99.8843,260.2483,0,U,54144,999,17554,-.63625E-3,-.242E-5,0
ONEWEB-0529,2022-138AJ,2026-06-07T15:28:33.877056,13.19724582,.0001573,87.9162,306.8758,97.2281,262.9031,0,U,54145,999,17556,-.24725E-4,.3E-7,0
ONEWEB-0531,2022-138AK,2026-06-07T18:19:20.829792,13.20771687,.0002716,87.9189,276.3135,111.1761,248.9663,0,U,54146,999,17806,.78658E-6,.13E-6,0
ONEWEB-0535,2022-138AL,2026-06-07T16:16:19.925760,13.19724409,.000217,87.9171,306.8530,97.0833,263.0546,0,U,54147,999,17558,.21876E-3,.101E-5,0
